{
  "type": "FeatureCollection",
  "features": [
    {
      "type": "Feature",
      "properties": {
        "norad_id": 28054,
        "name": "DMSP 5D-3 F16 (USA 172)",
        "group": "weather",
        "lat": -34.355041203974125,
        "lon": -167.5622878801808,
        "alt_km": 848.1565661624527,
        "timestamp": "2025-12-27T02:10:15.830837+00:00",
        "meta_object_name": "DMSP 5D-3 F16 (USA 172)",
        "meta_object_id": "2003-048A",
        "meta_epoch": "2025-12-26T18:51:57.832992",
        "meta_mean_motion": 14.1442907,
        "meta_eccentricity": 0.0006242,
        "meta_inclination": 99.0037,
        "meta_ra_of_asc_node": 18.3529,
        "meta_arg_of_pericenter": 275.7163,
        "meta_mean_anomaly": 190.0901,
        "meta_ephemeris_type": 0,
        "meta_classification_type": "U",
        "meta_norad_cat_id": 28054,
        "meta_element_set_no": 999,
        "meta_rev_at_epoch": 14511,
        "meta_bstar": 8.8537e-05,
        "meta_mean_motion_dot": 1.24e-06,
        "meta_mean_motion_ddot": 0,
        "tle_line1": "1 28054U 03048A   25360.78608603  .00000124  00000+0  88537-4 0  9999",
        "tle_line2": "2 28054  99.0037  18.3529 0006242 275.7163 190.0901 14.14429070145116"
      },
      "geometry": {
        "type": "Point",
        "coordinates": [
          -167.5622878801808,
          -34.355041203974125
        ]
      }
    },
    {
      "type": "Feature",
      "properties": {
        "norad_id": 28912,
        "name": "METEOSAT-9 (MSG-2)",
        "group": "weather",
        "lat": 7.976107120561166,
        "lon": 173.2584530723724,
        "alt_km": 36078.08166923478,
        "timestamp": "2025-12-27T02:10:15.830887+00:00",
        "meta_object_name": "METEOSAT-9 (MSG-2)",
        "meta_object_id": "2005-049B",
        "meta_epoch": "2025-12-24T18:27:10.310976",
        "meta_mean_motion": 1.00268275,
        "meta_eccentricity": 0.00719695,
        "meta_inclination": 8.9553,
        "meta_ra_of_asc_node": 55.846,
        "meta_arg_of_pericenter": 282.2974,
        "meta_mean_anomaly": 77.0088,
        "meta_ephemeris_type": 0,
        "meta_classification_type": "U",
        "meta_norad_cat_id": 28912,
        "meta_element_set_no": 999,
        "meta_rev_at_epoch": 524,
        "meta_bstar": 0,
        "meta_mean_motion_dot": 1.45e-06,
        "meta_mean_motion_ddot": 0,
        "tle_line1": "1 28912U 05049B   25358.76886934  .00000145  00000+0  00000+0 0  9992",
        "tle_line2": "2 28912   8.9553  55.8460 0071969 282.2974  77.0088  1.00268275  5240"
      },
      "geometry": {
        "type": "Point",
        "coordinates": [
          173.2584530723724,
          7.976107120561166
        ]
      }
    },
    {
      "type": "Feature",
      "properties": {
        "norad_id": 29522,
        "name": "DMSP 5D-3 F17 (USA 191)",
        "group": "weather",
        "lat": -0.5529675954216704,
        "lon": -173.90437538724848,
        "alt_km": 838.3115827097708,
        "timestamp": "2025-12-27T02:10:15.830905+00:00",
        "meta_object_name": "DMSP 5D-3 F17 (USA 191)",
        "meta_object_id": "2006-050A",
        "meta_epoch": "2025-12-26T16:50:06.510336",
        "meta_mean_motion": 14.14925479,
        "meta_eccentricity": 0.0010019,
        "meta_inclination": 98.7393,
        "meta_ra_of_asc_node": 5.7998,
        "meta_arg_of_pericenter": 183.4248,
        "meta_mean_anomaly": 176.6858,
        "meta_ephemeris_type": 0,
        "meta_classification_type": "U",
        "meta_norad_cat_id": 29522,
        "meta_element_set_no": 999,
        "meta_rev_at_epoch": 98802,
        "meta_bstar": 0.00011385,
        "meta_mean_motion_dot": 1.77e-06,
        "meta_mean_motion_ddot": 0,
        "tle_line1": "1 29522U 06050A   25360.70146424  .00000177  00000+0  11385-3 0  9990",
        "tle_line2": "2 29522  98.7393   5.7998 0010019 183.4248 176.6858 14.14925479988024"
      },
      "geometry": {
        "type": "Point",
        "coordinates": [
          -173.90437538724848,
          -0.5529675954216704
        ]
      }
    },
    {
      "type": "Feature",
      "properties": {
        "norad_id": 32958,
        "name": "FENGYUN 3A",
        "group": "weather",
        "lat": 47.84083886846883,
        "lon": 130.01938038800614,
        "alt_km": 826.375939112806,
        "timestamp": "2025-12-27T02:10:15.830918+00:00",
        "meta_object_name": "FENGYUN 3A",
        "meta_object_id": "2008-026A",
        "meta_epoch": "2025-12-26T20:28:43.260672",
        "meta_mean_motion": 14.19518996,
        "meta_eccentricity": 0.0007614,
        "meta_inclination": 98.6714,
        "meta_ra_of_asc_node": 300.084,
        "meta_arg_of_pericenter": 264.5136,
        "meta_mean_anomaly": 95.5172,
        "meta_ephemeris_type": 0,
        "meta_classification_type": "U",
        "meta_norad_cat_id": 32958,
        "meta_element_set_no": 999,
        "meta_rev_at_epoch": 91095,
        "meta_bstar": 8.1606e-05,
        "meta_mean_motion_dot": 1.29e-06,
        "meta_mean_motion_ddot": 0,
        "tle_line1": "1 32958U 08026A   25360.85327848  .00000129  00000+0  81606-4 0  9990",
        "tle_line2": "2 32958  98.6714 300.0840 0007614 264.5136  95.5172 14.19518996910950"
      },
      "geometry": {
        "type": "Point",
        "coordinates": [
          130.01938038800614,
          47.84083886846883
        ]
      }
    },
    {
      "type": "Feature",
      "properties": {
        "norad_id": 35491,
        "name": "GOES 14",
        "group": "weather",
        "lat": -1.20083232061309,
        "lon": 9.60400225090401,
        "alt_km": 35835.266158042745,
        "timestamp": "2025-12-27T02:10:15.830932+00:00",
        "meta_object_name": "GOES 14",
        "meta_object_id": "2009-033A",
        "meta_epoch": "2025-12-26T12:10:38.039808",
        "meta_mean_motion": 1.00097067,
        "meta_eccentricity": 7.66e-05,
        "meta_inclination": 1.2376,
        "meta_ra_of_asc_node": 85.2609,
        "meta_arg_of_pericenter": 194.3443,
        "meta_mean_anomaly": 239.8772,
        "meta_ephemeris_type": 0,
        "meta_classification_type": "U",
        "meta_norad_cat_id": 35491,
        "meta_element_set_no": 999,
        "meta_rev_at_epoch": 486,
        "meta_bstar": 0,
        "meta_mean_motion_dot": 4.3e-07,
        "meta_mean_motion_ddot": 0,
        "tle_line1": "1 35491U 09033A   25360.50738472  .00000043  00000+0  00000+0 0  9994",
        "tle_line2": "2 35491   1.2376  85.2609 0000766 194.3443 239.8772  1.00097067  4866"
      },
      "geometry": {
        "type": "Point",
        "coordinates": [
          9.60400225090401,
          -1.20083232061309
        ]
      }
    },
    {
      "type": "Feature",
      "properties": {
        "norad_id": 35951,
        "name": "DMSP 5D-3 F18 (USA 210)",
        "group": "weather",
        "lat": 39.71761480184061,
        "lon": -30.046083521763858,
        "alt_km": 831.8557225326495,
        "timestamp": "2025-12-27T02:10:15.830944+00:00",
        "meta_object_name": "DMSP 5D-3 F18 (USA 210)",
        "meta_object_id": "2009-057A",
        "meta_epoch": "2025-12-26T19:11:32.497152",
        "meta_mean_motion": 14.14778509,
        "meta_eccentricity": 0.001163,
        "meta_inclination": 98.8851,
        "meta_ra_of_asc_node": 337.1313,
        "meta_arg_of_pericenter": 25.5177,
        "meta_mean_anomaly": 334.6568,
        "meta_ephemeris_type": 0,
        "meta_classification_type": "U",
        "meta_norad_cat_id": 35951,
        "meta_element_set_no": 999,
        "meta_rev_at_epoch": 83521,
        "meta_bstar": 0.00017785,
        "meta_mean_motion_dot": 2.98e-06,
        "meta_mean_motion_ddot": 0,
        "tle_line1": "1 35951U 09057A   25360.79968168  .00000298  00000+0  17785-3 0  9993",
        "tle_line2": "2 35951  98.8851 337.1313 0011630  25.5177 334.6568 14.14778509835213"
      },
      "geometry": {
        "type": "Point",
        "coordinates": [
          -30.046083521763858,
          39.71761480184061
        ]
      }
    },
    {
      "type": "Feature",
      "properties": {
        "norad_id": 36411,
        "name": "EWS-G2 (GOES 15)",
        "group": "weather",
        "lat": 0.8233751744111882,
        "lon": -170.32895508757375,
        "alt_km": 35780.40391670261,
        "timestamp": "2025-12-27T02:10:15.830957+00:00",
        "meta_object_name": "EWS-G2 (GOES 15)",
        "meta_object_id": "2010-008A",
        "meta_epoch": "2025-12-26T18:08:44.994048",
        "meta_mean_motion": 1.00271008,
        "meta_eccentricity": 0.0005656,
        "meta_inclination": 0.8463,
        "meta_ra_of_asc_node": 86.065,
        "meta_arg_of_pericenter": 179.6138,
        "meta_mean_anomaly": 163.353,
        "meta_ephemeris_type": 0,
        "meta_classification_type": "U",
        "meta_norad_cat_id": 36411,
        "meta_element_set_no": 999,
        "meta_rev_at_epoch": 5790,
        "meta_bstar": 0,
        "meta_mean_motion_dot": 6e-07,
        "meta_mean_motion_ddot": 0,
        "tle_line1": "1 36411U 10008A   25360.75607632  .00000060  00000+0  00000+0 0  9990",
        "tle_line2": "2 36411   0.8463  86.0650 0005656 179.6138 163.3530  1.00271008 57901"
      },
      "geometry": {
        "type": "Point",
        "coordinates": [
          -170.32895508757375,
          0.8233751744111882
        ]
      }
    }
  ]
}